start=new Date('2023-02-08T00:00:00.000Z').valueOf();
sats=[{"PERIAPSIS":"539.010","FILE":"3777931","DECAY_DATE":null,"GP_ID":"224719783","PERIOD":"95.437","REF_FRAME":"TEME","ECCENTRICITY":"0.00010060","EPOCH":"2023-02-07T22:48:38.304576","MEAN_MOTION_DDOT":"0.0000000000000","REV_AT_EPOCH":"2835","MEAN_ELEMENT_THEORY":"SGP4","MEAN_ANOMALY":"274.8783","RCS_SIZE":"LARGE","OBJECT_TYPE":"PAYLOAD","ARG_OF_PERICENTER":"85.2324","TLE_LINE1":"1 53431U 22097AV  23038.95044334  .00000890  00000-0  73997-4 0  9990","COUNTRY_CODE":"US","ELEMENT_SET_NO":"999","NORAD_CAT_ID":"53431","LAUNCH_DATE":"2022-08-10","INCLINATION":"53.2178","SEMIMAJOR_AXIS":"6917.841","RA_OF_ASC_NODE":"117.8855","SITE":"AFETR","EPHEMERIS_TYPE":"0","CENTER_NAME":"EARTH","OBJECT_NAME":"STARLINK-4548","TLE_LINE2":"2 53431  53.2178 117.8855 0001006  85.2324 274.8783 15.08852949 28358","BSTAR":"0.00007399700000","MEAN_MOTION":"15.08852949","TIME_SYSTEM":"UTC","CLASSIFICATION_TYPE":"U","APOAPSIS":"540.402","OBJECT_ID":"2022-097AV","MEAN_MOTION_DOT":"0.00000890"},{"GP_ID":"224746961","PERIOD":"95.438","REF_FRAME":"TEME","ECCENTRICITY":"0.00009710","EPOCH":"2023-02-07T21:59:31.197120","PERIAPSIS":"539.080","FILE":"3777976","DECAY_DATE":null,"ARG_OF_PERICENTER":"107.0320","TLE_LINE1":"1 53432U 22097AW  23038.91633330  .00000232  00000-0  32646-4 0  9993","COUNTRY_CODE":"US","ELEMENT_SET_NO":"999","NORAD_CAT_ID":"53432","MEAN_MOTION_DDOT":"0.0000000000000","REV_AT_EPOCH":"2883","MEAN_ELEMENT_THEORY":"SGP4","MEAN_ANOMALY":"253.0778","RCS_SIZE":"LARGE","OBJECT_TYPE":"PAYLOAD","SEMIMAJOR_AXIS":"6917.886","RA_OF_ASC_NODE":"117.6822","EPHEMERIS_TYPE":"0","SITE":"AFETR","LAUNCH_DATE":"2022-08-10","INCLINATION":"53.2172","MEAN_MOTION":"15.08838056","BSTAR":"0.00003264600000","CLASSIFICATION_TYPE":"U","TIME_SYSTEM":"UTC","APOAPSIS":"540.423","OBJECT_ID":"2022-097AW","MEAN_MOTION_DOT":"0.00000232","CENTER_NAME":"EARTH","OBJECT_NAME":"STARLINK-4557","TLE_LINE2":"2 53432  53.2172 117.6822 0000971 107.0320 253.0778 15.08838056 28833"},{"INCLINATION":"53.2163","LAUNCH_DATE":"2022-08-10","EPHEMERIS_TYPE":"0","SITE":"AFETR","SEMIMAJOR_AXIS":"6917.844","RA_OF_ASC_NODE":"117.8091","TLE_LINE2":"2 53433  53.2163 117.8091 0001187  87.8420 272.2708 15.08851861 28352","CENTER_NAME":"EARTH","OBJECT_NAME":"STARLINK-4549","MEAN_MOTION_DOT":"0.00012256","OBJECT_ID":"2022-097AX","TIME_SYSTEM":"UTC","CLASSIFICATION_TYPE":"U","APOAPSIS":"540.530","MEAN_MOTION":"15.08851861","BSTAR":"0.00078652000000","DECAY_DATE":null,"PERIAPSIS":"538.888","FILE":"3777932","ECCENTRICITY":"0.00011870","EPOCH":"2023-02-07T22:31:21.121824","REF_FRAME":"TEME","PERIOD":"95.437","GP_ID":"224719797","OBJECT_TYPE":"PAYLOAD","MEAN_ELEMENT_THEORY":"SGP4","MEAN_ANOMALY":"272.2708","RCS_SIZE":"LARGE","MEAN_MOTION_DDOT":"0.0000000000000","REV_AT_EPOCH":"2835","NORAD_CAT_ID":"53433","COUNTRY_CODE":"US","ELEMENT_SET_NO":"999","ARG_OF_PERICENTER":"87.8420","TLE_LINE1":"1 53433U 22097AX  23038.93843891  .00012256  00000-0  78652-3 0  9996"},{"CENTER_NAME":"EARTH","OBJECT_NAME":"STARLINK-4498","TLE_LINE2":"2 53434  53.2156 118.8509 0000902  82.6027 277.5068 15.08874940 28800","MEAN_MOTION":"15.08874940","BSTAR":"0.00075823000000","TIME_SYSTEM":"UTC","CLASSIFICATION_TYPE":"U","APOAPSIS":"540.263","OBJECT_ID":"2022-097AY","MEAN_MOTION_DOT":"0.00011811","LAUNCH_DATE":"2022-08-10","INCLINATION":"53.2156","SEMIMAJOR_AXIS":"6917.774","RA_OF_ASC_NODE":"118.8509","SITE":"AFETR","EPHEMERIS_TYPE":"0","MEAN_MOTION_DDOT":"0.0000000000000","REV_AT_EPOCH":"2880","MEAN_ELEMENT_THEORY":"SGP4","MEAN_ANOMALY":"277.5068","RCS_SIZE":"LARGE","OBJECT_TYPE":"PAYLOAD","ARG_OF_PERICENTER":"82.6027","TLE_LINE1":"1 53434U 22097AY  23038.64767785  .00011811  00000-0  75823-3 0  9995","COUNTRY_CODE":"US","ELEMENT_SET_NO":"999","NORAD_CAT_ID":"53434","PERIAPSIS":"539.015","FILE":"3777976","DECAY_DATE":null,"GP_ID":"224745961","PERIOD":"95.435","REF_FRAME":"TEME","EPOCH":"2023-02-07T15:32:39.366240","ECCENTRICITY":"0.00009020"},{"INCLINATION":"53.2169","LAUNCH_DATE":"2022-08-10","EPHEMERIS_TYPE":"0","SITE":"AFETR","RA_OF_ASC_NODE":"119.7719","SEMIMAJOR_AXIS":"6917.830","TLE_LINE2":"2 53435  53.2169 119.7719 0001488 107.1635 252.9520 15.08856525 28748","OBJECT_NAME":"STARLINK-4542","CENTER_NAME":"EARTH","MEAN_MOTION_DOT":"0.00005868","OBJECT_ID":"2022-097AZ","APOAPSIS":"540.724","TIME_SYSTEM":"UTC","CLASSIFICATION_TYPE":"U","MEAN_MOTION":"15.08856525","BSTAR":"0.00038631000000","DECAY_DATE":null,"FILE":"3777208","PERIAPSIS":"538.666","EPOCH":"2023-02-07T10:53:11.707872","ECCENTRICITY":"0.00014880","REF_FRAME":"TEME","PERIOD":"95.437","GP_ID":"224707515","OBJECT_TYPE":"PAYLOAD","RCS_SIZE":"LARGE","MEAN_ANOMALY":"252.9520","MEAN_ELEMENT_THEORY":"SGP4","REV_AT_EPOCH":"2874","MEAN_MOTION_DDOT":"0.0000000000000","NORAD_CAT_ID":"53435","ELEMENT_SET_NO":"999","COUNTRY_CODE":"US","TLE_LINE1":"1 53435U 22097AZ  23038.45360773  .00005868  00000-0  38631-3 0  9992","ARG_OF_PERICENTER":"107.1635"},{"OBJECT_NAME":"STARLINK-4527","CENTER_NAME":"EARTH","TLE_LINE2":"2 53436  53.2162 117.6350 0001188  88.2856 271.8273 15.08848743 28839","APOAPSIS":"540.541","TIME_SYSTEM":"UTC","CLASSIFICATION_TYPE":"U","BSTAR":"0.00014846000000","MEAN_MOTION":"15.08848743","MEAN_MOTION_DOT":"0.00002076","OBJECT_ID":"2022-097BA","LAUNCH_DATE":"2022-08-10","INCLINATION":"53.2162","RA_OF_ASC_NODE":"117.6350","SEMIMAJOR_AXIS":"6917.854","EPHEMERIS_TYPE":"0","SITE":"AFETR","REV_AT_EPOCH":"2883","MEAN_MOTION_DDOT":"0.0000000000000","OBJECT_TYPE":"PAYLOAD","RCS_SIZE":"LARGE","MEAN_ELEMENT_THEORY":"SGP4","MEAN_ANOMALY":"271.8273","ELEMENT_SET_NO":"999","COUNTRY_CODE":"US","TLE_LINE1":"1 53436U 22097BA  23038.90895861  .00002076  00000-0  14846-3 0  9994","ARG_OF_PERICENTER":"88.2856","NORAD_CAT_ID":"53436","FILE":"3777976","PERIAPSIS":"538.897","DECAY_DATE":null,"REF_FRAME":"TEME","GP_ID":"224746461","PERIOD":"95.437","ECCENTRICITY":"0.00011880","EPOCH":"2023-02-07T21:48:54.023904"},{"REF_FRAME":"TEME","PERIOD":"95.438","GP_ID":"224746701","EPOCH":"2023-02-07T21:43:36.268896","ECCENTRICITY":"0.00011740","PERIAPSIS":"538.943","FILE":"3777976","DECAY_DATE":null,"COUNTRY_CODE":"US","ELEMENT_SET_NO":"999","ARG_OF_PERICENTER":"101.7116","TLE_LINE1":"1 53438U 22097BC  23038.90528089  .00000207  00000-0  31065-4 0  9998","NORAD_CAT_ID":"53438","MEAN_MOTION_DDOT":"0.0000000000000","REV_AT_EPOCH":"2884","OBJECT_TYPE":"PAYLOAD","MEAN_ANOMALY":"258.4008","MEAN_ELEMENT_THEORY":"SGP4","RCS_SIZE":"LARGE","SEMIMAJOR_AXIS":"6917.890","RA_OF_ASC_NODE":"117.6135","EPHEMERIS_TYPE":"0","SITE":"AFETR","LAUNCH_DATE":"2022-08-10","INCLINATION":"53.2160","CLASSIFICATION_TYPE":"U","TIME_SYSTEM":"UTC","APOAPSIS":"540.567","MEAN_MOTION":"15.08836809","BSTAR":"0.00003106500000","MEAN_MOTION_DOT":"0.00000207","OBJECT_ID":"2022-097BC","CENTER_NAME":"EARTH","OBJECT_NAME":"STARLINK-4526","TLE_LINE2":"2 53438  53.2160 117.6135 0001174 101.7116 258.4008 15.08836809 28843"},{"FILE":"3777208","PERIAPSIS":"538.827","DECAY_DATE":null,"REF_FRAME":"TEME","PERIOD":"95.437","GP_ID":"224707767","ECCENTRICITY":"0.00013090","EPOCH":"2023-02-07T10:30:35.454240","REV_AT_EPOCH":"2877","MEAN_MOTION_DDOT":"0.0000000000000","OBJECT_TYPE":"PAYLOAD","RCS_SIZE":"LARGE","MEAN_ANOMALY":"266.1903","MEAN_ELEMENT_THEORY":"SGP4","ELEMENT_SET_NO":"999","COUNTRY_CODE":"US","TLE_LINE1":"1 53439U 22097BD  23038.43791035  .00001364  00000-0  10377-3 0  9997","ARG_OF_PERICENTER":"93.9239","NORAD_CAT_ID":"53439","LAUNCH_DATE":"2022-08-10","INCLINATION":"53.2179","RA_OF_ASC_NODE":"119.6705","SEMIMAJOR_AXIS":"6917.868","EPHEMERIS_TYPE":"0","SITE":"AFETR","OBJECT_NAME":"STARLINK-4519","CENTER_NAME":"EARTH","TLE_LINE2":"2 53439  53.2179 119.6705 0001309  93.9239 266.1903 15.08844101 28773","APOAPSIS":"540.638","TIME_SYSTEM":"UTC","CLASSIFICATION_TYPE":"U","BSTAR":"0.00010377000000","MEAN_MOTION":"15.08844101","MEAN_MOTION_DOT":"0.00001364","OBJECT_ID":"2022-097BD"},{"FILE":"3777976","PERIAPSIS":"561.987","DECAY_DATE":null,"PERIOD":"95.919","GP_ID":"224746214","REF_FRAME":"TEME","EPOCH":"2023-02-07T21:39:31.908096","ECCENTRICITY":"0.00014390","REV_AT_EPOCH":"2708","MEAN_MOTION_DDOT":"0.0000000000000","RCS_SIZE":"LARGE","MEAN_ANOMALY":"90.8057","MEAN_ELEMENT_THEORY":"SGP4","OBJECT_TYPE":"PAYLOAD","TLE_LINE1":"1 53465U 22099A   23038.90245264 -.00000128  00000-0 -53588-5 0  9990","ARG_OF_PERICENTER":"269.3002","ELEMENT_SET_NO":"999","COUNTRY_CODE":"US","NORAD_CAT_ID":"53465","LAUNCH_DATE":"2022-08-12","INCLINATION":"97.6548","RA_OF_ASC_NODE":"161.8192","SEMIMAJOR_AXIS":"6941.121","EPHEMERIS_TYPE":"0","SITE":"AFWTR","OBJECT_NAME":"STARLINK-4415","CENTER_NAME":"EARTH","TLE_LINE2":"2 53465  97.6548 161.8192 0001439 269.3002  90.8057 15.01268408 27082","BSTAR":"-0.00000535880000","MEAN_MOTION":"15.01268408","APOAPSIS":"563.985","CLASSIFICATION_TYPE":"U","TIME_SYSTEM":"UTC","OBJECT_ID":"2022-099A","MEAN_MOTION_DOT":"-0.00000128"},{"OBJECT_ID":"2022-099B","MEAN_MOTION_DOT":"-0.00001122","BSTAR":"-0.00008280900000","MEAN_MOTION":"15.01263089","TIME_SYSTEM":"UTC","CLASSIFICATION_TYPE":"U","APOAPSIS":"563.110","TLE_LINE2":"2 53466  97.6551 161.8193 0000155 359.6750   0.4474 15.01263089 27074","CENTER_NAME":"EARTH","OBJECT_NAME":"STARLINK-4398","SITE":"AFWTR","EPHEMERIS_TYPE":"0","SEMIMAJOR_AXIS":"6941.137","RA_OF_ASC_NODE":"161.8193","INCLINATION":"97.6551","LAUNCH_DATE":"2022-08-12","NORAD_CAT_ID":"53466","ARG_OF_PERICENTER":"359.6750","TLE_LINE1":"1 53466U 22099B   23038.90060712 -.00001122  00000-0 -82809-4 0  9996","COUNTRY_CODE":"US","ELEMENT_SET_NO":"999","MEAN_ANOMALY":"0.4474","MEAN_ELEMENT_THEORY":"SGP4","RCS_SIZE":"LARGE","OBJECT_TYPE":"PAYLOAD","MEAN_MOTION_DDOT":"0.0000000000000","REV_AT_EPOCH":"2707","EPOCH":"2023-02-07T21:36:52.455168","ECCENTRICITY":"0.00001550","PERIOD":"95.919","GP_ID":"224746464","REF_FRAME":"TEME","DECAY_DATE":null,"PERIAPSIS":"562.895","FILE":"3777976"}];
